window.METAR_DATA = [
  { raw: "METAR KABQ 182252Z VRB03KT 10SM FEW250 18/M17 A3017 RMK AO2 SLP181 T01781167 $", fltCat: "VFR" },
  { raw: "METAR KALB 182351Z 14012G19KT 10SM SCT160 BKN250 16/09 A2987 RMK AO2 SLP116 T01610089 10228 20161 55009", fltCat: "VFR" },
  { raw: "METAR KAMA 182253Z 05008KT 020V080 10SM CLR 16/M11 A3025 RMK AO2 SLP229 T01611106", fltCat: "VFR" },
  { raw: "METAR KATL 182252Z 20010KT 10SM FEW065 FEW150 SCT200 OVC250 27/11 A2994 RMK AO2 SLP130 T02670111 $", fltCat: "VFR" },
  { raw: "METAR KAUS 182253Z 35021G29KT 10SM OVC033 14/07 A3011 RMK AO2 PK WND 36030/2227 LTG DSNT N SLP192 OCNL LTG DSNT N T01390067 $", fltCat: "VFR" },
  { raw: "METAR KBHM 182253Z 25010KT 10SM FEW042 BKN060 OVC250 26/16 A2997 RMK AO2 SLP143 T02560161", fltCat: "VFR" },
  { raw: "METAR KBNA 182253Z 32013G20KT 10SM BKN015 BKN055 OVC100 13/08 A3004 RMK AO2 PK WND 36029/2221 SLP169 T01280083 $", fltCat: "MVFR" },
  { raw: "METAR KBOI 182353Z 12007KT 090V150 10SM CLR 18/M08 A3006 RMK AO2 SLP175 T01781078 10178 20122 56028", fltCat: "VFR" },
  { raw: "METAR KBTR 182253Z 00000KT 10SM CLR 28/18 A2995 RMK AO2 SLP141 T02780183 $", fltCat: "VFR" },
  { raw: "METAR KBTV 182254Z 15012G25KT 10SM SCT070 BKN120 BKN150 20/07 A2978 RMK AO2 PK WND 15030/2213 SLP085 T02000067", fltCat: "VFR" },
  { raw: "METAR KBUR 182253Z 20011G16KT 10SM CLR 28/02 A2990 RMK AO2 SLP114 T02780022", fltCat: "VFR" },
  { raw: "METAR KBWI 182254Z 09012KT 10SM SCT220 BKN250 19/13 A2987 RMK AO2 SLP113 T01940133", fltCat: "VFR" },
  { raw: "METAR KCHS 182256Z 19008KT 10SM FEW080 SCT090 BKN200 OVC250 26/17 A2993 RMK AO2 SLP135 T02610167", fltCat: "VFR" },
  { raw: "METAR KCLE 182351Z 28014G25KT 10SM FEW028 OVC050 11/06 A2986 RMK AO2 SLP126 60005 T01110056 10183 20106 51034 $", fltCat: "VFR" },
  { raw: "METAR KCLT 182252Z 22008KT 10SM FEW085 BKN250 29/13 A2988 RMK AO2 SLP125 T02940128", fltCat: "VFR" },
  { raw: "METAR KCMH 182351Z 28013KT 10SM OVC044 11/06 A2992 RMK AO2 RAE07 SLP130 P0000 60005 T01110056 10189 20111 51038", fltCat: "VFR" },
  { raw: "METAR KCRP 182351Z 08010KT 10SM SCT018 SCT041 BKN075 OVC250 26/22 A2995 RMK AO2 SLP142 T02610217 10289 20261 53013 $", fltCat: "VFR" },
  { raw: "METAR KCVG 182252Z 29010KT 10SM FEW011 OVC043 09/06 A2998 RMK AO2 SLP147 T00940056", fltCat: "VFR" },
  { raw: "METAR KDAL 182253Z 02006KT 10SM FEW100 FEW120 BKN140 BKN250 15/04 A3018 RMK AO2 SLP215 T01500039", fltCat: "VFR" },
  { raw: "METAR KDEN 182253Z COR VRB03KT 10SM SCT250 12/M14 A3016 RMK AO2 SLP206 T01221144 $", fltCat: "VFR" },
  { raw: "METAR KDFW 182253Z 01011KT 10SM FEW120 BKN150 BKN250 16/03 A3016 RMK AO2 SLP210 T01560033 $", fltCat: "VFR" },
  { raw: "METAR KDSM 182354Z 29016KT 10SM FEW100 11/M12 A3011 RMK AO2 PK WND 27034/2316 SLP202 T01061122 10117 20083 56001 $", fltCat: "VFR" },
  { raw: "METAR KDTW 182253Z 27013G24KT 10SM SCT030 BKN085 BKN130 09/02 A2985 RMK AO2 PK WND 26026/2239 SLP108 T00940022 $", fltCat: "VFR" },
  { raw: "METAR KELP 182351Z 12014G27KT 10SM FEW250 21/M06 A3011 RMK AO2 PK WND 10027/2346 SLP146 T02111056 10233 20189 55006", fltCat: "VFR" },
  { raw: "METAR KEWR 182351Z 14007G15KT 10SM OVC008 11/09 A2998 RMK AO2 SLP152 T01110089 10161 20111 56007", fltCat: "IFR" },
  { raw: "METAR KFAT 182353Z VRB04KT 10SM FEW100 SCT150 BKN200 BKN250 28/M01 A2990 RMK AO2 SLP121 T02781006 10278 20200 56023 $", fltCat: "VFR" },
  { raw: "METAR KFLL 182253Z 09011KT 10SM FEW029 FEW250 27/21 A2996 RMK AO2 SLP144 T02670211", fltCat: "VFR" },
  { raw: "METAR KGEG 182353Z 24007KT 10SM FEW070 FEW160 SCT260 16/M03 A3005 RMK AO2 SLP179 T01611028 10161 20100 56016 $", fltCat: "VFR" },
  { raw: "METAR KGSO 182254Z 23009KT 10SM SCT170 BKN250 29/09 A2986 RMK AO2 SLP100 T02890089", fltCat: "VFR" },
  { raw: "METAR KGSP 182253Z 22012KT 10SM CLR 28/13 A2991 RMK AO2 SLP118 T02780133", fltCat: "VFR" },
  { raw: "METAR KIAD 182252Z 13013G24KT 10SM FEW140 SCT220 BKN260 25/15 A2980 RMK AO2 SLP088 T02500150 $", fltCat: "VFR" },
  { raw: "METAR KICT 182253Z 30010KT 10SM SCT100 18/M05 A3018 RMK AO2 SLP219 T01781050 $", fltCat: "VFR" },
  { raw: "METAR KIND 182254Z 30014G21KT 10SM FEW025 SCT085 BKN110 BKN250 11/02 A3000 RMK AO2 SLP160 T01060017", fltCat: "VFR" },
  { raw: "METAR KJAX 182256Z 13008KT 10SM SCT090 SCT250 29/13 A2994 RMK AO2 SLP138 T02890128 $", fltCat: "VFR" },
  { raw: "METAR KJFK 182251Z 13010KT 10SM OVC009 11/09 A2999 RMK SLP155 T01060089", fltCat: "IFR" },
  { raw: "METAR KLAS 182256Z VRB03KT 10SM FEW120 BKN250 24/M18 A3000 RMK AO2 SLP147 T02441178", fltCat: "VFR" },
  { raw: "METAR KLAX 182253Z 25011KT 10SM SCT250 22/14 A2991 RMK AO2 SLP128 T02170139 $", fltCat: "VFR" },
  { raw: "METAR KLBB 182253Z 04010G18KT 10SM FEW110 FEW250 18/M13 A3023 RMK AO2 SLP217 T01781128", fltCat: "VFR" },
  { raw: "METAR KLGA 182351Z 13012KT 10SM FEW009 BKN012 OVC070 12/09 A2997 RMK AO2 SLP148 T01220089 10172 20122 55007 $", fltCat: "MVFR" },
  { raw: "METAR KLIT 182253Z 02007KT 10SM BKN055 12/08 A3014 RMK AO2 SLP209 T01220083", fltCat: "VFR" },
  { raw: "METAR KMCI 182353Z 29005KT 10SM BKN090 13/M04 A3015 RMK AO2 SLP212 DSNT SH SW T01281044 10150 20111 56006 $", fltCat: "VFR" },
  { raw: "METAR KMCO 182253Z 16003KT 10SM FEW065 BKN250 31/14 A2997 RMK AO2 SLP148 T03060139", fltCat: "VFR" },
  { raw: "METAR KMDW 182253Z 29025G34KT 10SM FEW050 FEW250 09/M03 A2997 RMK AO2 PK WND 28035/2156 SLP152 T00891033", fltCat: "VFR" },
  { raw: "METAR KMEM 182254Z 02009G17KT 7SM BKN015 OVC035 10/08 A3010 RMK AO2 SLP190 T01000083 $", fltCat: "MVFR" },
  { raw: "METAR KMHT 182253Z 09007G14KT 10SM OVC021 09/04 A3002 RMK AO2 SLP181 T00940044", fltCat: "MVFR" },
  { raw: "METAR KMIA 182253Z 12011KT 10SM FEW025 SCT250 27/21 A2996 RMK SLP145 T02720206", fltCat: "VFR" },
  { raw: "METAR KMKE 182252Z 30015G27KT 10SM BKN055 08/M04 A2992 RMK AO2 PK WND 26033/2153 SLP135 T00831044", fltCat: "VFR" },
  { raw: "METAR KMOB 182256Z 20012KT 10SM SCT045 BKN200 26/19 A2997 RMK AO2 SLP145 T02560189", fltCat: "VFR" },
  { raw: "METAR KMRY 182254Z 26008KT 10SM CLR 19/10 A2996 RMK AO2 SLP157 T01940100 $", fltCat: "VFR" },
  { raw: "METAR KMSP 182353Z 30019G28KT 10SM SCT080 07/M12 A2999 RMK AO2 PK WND 28034/2303 SLP162 T00721117 10078 20033 53007", fltCat: "VFR" },
  { raw: "METAR KMSY 182253Z 18006KT 10SM FEW045 FEW090 BKN250 27/21 A2995 RMK AO2 SLP145 T02720206", fltCat: "VFR" },
  { raw: "METAR KOKC 182252Z 36012G20KT 10SM FEW250 17/M03 A3023 RMK AO2 SLP235 T01671028 $", fltCat: "VFR" },
  { raw: "METAR KOMA 182252Z 31011G20KT 10SM FEW080 SCT095 13/M04 A3013 RMK AO2 PK WND 29030/2231 SLP208 T01281039 $", fltCat: "VFR" },
  { raw: "METAR KONT 182253Z 25012G16KT 10SM SCT250 29/00 A2989 RMK AO2 SLP107 T02940000 $", fltCat: "VFR" },
  { raw: "METAR KORD 182351Z 27021G32KT 10SM SCT050 SCT250 08/M05 A2998 RMK AO2 PK WND 27034/2313 SLP155 T00781050 10106 20078 53023 $", fltCat: "VFR" },
  { raw: "METAR KORF 182351Z 17008KT 10SM CLR 25/14 A2987 RMK AO2 SLP114 T02500144 10278 20250 56004", fltCat: "VFR" },
  { raw: "METAR KPBI 182253Z 09012KT 10SM SCT028 27/21 A2998 RMK AO2 SLP151 T02670211 $", fltCat: "VFR" },
  { raw: "METAR KPDX 182253Z 07005KT 10SM FEW070 FEW180 BKN250 22/M01 A2992 RMK AO2 SLP132 T02171006 $", fltCat: "VFR" },
  { raw: "METAR KPHX 182351Z 23006KT 10SM FEW250 32/M11 A2982 RMK AO2 SLP082 T03221106 10328 20272 56025 $", fltCat: "VFR" },
  { raw: "METAR KPIT 182351Z 23005KT 8SM FEW012 BKN027 OVC050 16/15 A2983 RMK AO2 RAE39 SLP106 P0002 60025 T01610150 10278 20161 51023", fltCat: "MVFR" },
  { raw: "METAR KPSP 182253Z 13003G14KT 10SM CLR 30/M13 A2988 RMK AO2 SLP116 T03001133 $", fltCat: "VFR" },
  { raw: "METAR KPWM 182351Z 10008KT 1 1/2SM -DZ OVC006 06/06 A3007 RMK AO2 SLP184 P0001 60001 T00560056 10106 20056 58014 $", fltCat: "IFR" },
  { raw: "METAR KRDU 182351Z 16005KT 10SM FEW090 BKN250 29/08 A2985 RMK AO2 SLP103 T02890083 10339 20289 56009 $", fltCat: "VFR" },
  { raw: "METAR KRIC 182254Z 14012KT 10SM SCT080 BKN250 28/14 A2983 RMK AO2 SLP105 T02780139 $", fltCat: "VFR" },
  { raw: "METAR KRNO 182255Z VRB04KT 10SM FEW110 FEW230 21/M12 A2998 RMK AO2 SLP127 T02111122", fltCat: "VFR" },
  { raw: "METAR KRSW 182253Z 29005KT 10SM CLR 29/21 A2995 RMK AO2 SLP140 T02890206", fltCat: "VFR" },
  { raw: "METAR KSAN 182351Z 21009KT 10SM FEW020 FEW250 22/14 A2994 RMK AO2 SLP137 T02170144 10222 20206 56009 $", fltCat: "VFR" },
  { raw: "METAR KSAT 182351Z 01019G34KT 10SM BKN036 OVC044 12/08 A3013 RMK AO2 PK WND 02036/2332 TSB15E50 SLP189 OCNL LTGCG CB DSNT N-NE MOV NE T01220078 10172 20122 53021", fltCat: "VFR" },
  { raw: "METAR KSAV 182353Z 18013KT 10SM FEW090 BKN250 26/14 A2993 RMK AO2 SLP133 T02610144 10339 20261 51005", fltCat: "VFR" },
  { raw: "METAR KSBA 182253Z 25010KT 10SM CLR 22/06 A2993 RMK AO2 SLP134 T02170061 $", fltCat: "VFR" },
  { raw: "METAR KSDF 182256Z 32009KT 10SM FEW015 SCT033 OVC045 10/06 A3002 RMK AO2 RAB02E13 SLP165 P0000 T01000056", fltCat: "VFR" },
  { raw: "METAR KSEA 182253Z 26007KT 10SM FEW100 SCT200 19/00 A2995 RMK AO2 SLP149 T01940000", fltCat: "VFR" },
  { raw: "METAR KSFO 182256Z 30013KT 10SM BKN200 22/09 A2993 RMK AO2 SLP136 T02170089 $", fltCat: "VFR" },
  { raw: "METAR KSJC 182253Z 31012KT 10SM BKN100 24/06 A2992 RMK AO2 SLP129 T02390056", fltCat: "VFR" },
  { raw: "METAR KSLC 182254Z VRB04KT 10SM SCT140 SCT170 BKN250 14/M09 A3017 RMK AO2 SLP207 T01441094", fltCat: "VFR" },
  { raw: "METAR KSMF 182253Z 15004KT 10SM BKN250 24/02 A2992 RMK AO2 SLP132 T02440022 $", fltCat: "VFR" },
  { raw: "METAR KSNA 182253Z 21006KT 10SM FEW060 FEW250 26/02 A2990 RMK AO2 SLP122 T02560017 $", fltCat: "VFR" },
  { raw: "METAR KSRQ 182253Z 29011KT 10SM CLR 26/21 A2998 RMK AO2 SLP150 T02610206", fltCat: "VFR" },
  { raw: "METAR KSYR 182254Z 16018G27KT 10SM -RA FEW060 SCT075 BKN100 BKN240 24/11 A2964 RMK AO2 PK WND 16036/2234 RAB38 SLP033 PCPN VRY LGT P0000 T02390111", fltCat: "VFR" },
  { raw: "METAR KTLH 182253Z 25010KT 10SM FEW060 BKN250 28/14 A2996 RMK AO2 SLP144 T02830144", fltCat: "VFR" },
  { raw: "METAR KTPA 182253Z 28011G18KT 10SM FEW050 BKN250 27/18 A2998 RMK AO2 SLP152 T02670183", fltCat: "VFR" },
  { raw: "METAR KTUL 182253Z 02006KT 10SM FEW250 17/M01 A3024 RMK AO2 SLP238 T01671006 $", fltCat: "VFR" },
  { raw: "METAR KTUS 182253Z 35008G14KT 10SM CLR 31/M03 A2989 RMK AO2 SLP081 T03111033", fltCat: "VFR" },
  { raw: "METAR KTYS 182353Z 28009KT 10SM FEW050 BKN100 BKN250 23/14 A2989 RMK AO2 SLP112 T02330144 10294 20233 51005", fltCat: "VFR" },
  { raw: "METAR PANC 182253Z 22006KT 10SM SCT060 05/01 A2989 RMK AO2 SLP125 T00500006", fltCat: "VFR" }
];
